{
  "type": "FeatureCollection",
  "features": [
    {
      "type": "Feature",
      "properties": {
        "norad_id": 35432,
        "name": "COSMOS 2251 DEB",
        "group": "cosmos-2251-debris",
        "lat": -37.79430322562852,
        "lon": -149.1670173922814,
        "alt_km": 508.8761207644138,
        "timestamp": "2025-12-11T13:55:02.562305+00:00",
        "meta_object_name": "COSMOS 2251 DEB",
        "meta_object_id": "1993-036AKA",
        "meta_epoch": "2025-12-11T01:54:57.919392",
        "meta_mean_motion": 15.22380706,
        "meta_eccentricity": 0.00122504,
        "meta_inclination": 74.0238,
        "meta_ra_of_asc_node": 19.0481,
        "meta_arg_of_pericenter": 344.223,
        "meta_mean_anomaly": 15.8585,
        "meta_ephemeris_type": 0,
        "meta_classification_type": "U",
        "meta_norad_cat_id": 35432,
        "meta_element_set_no": 999,
        "meta_rev_at_epoch": 87478,
        "meta_bstar": 0.0073021288,
        "meta_mean_motion_dot": 0.00172981,
        "meta_mean_motion_ddot": 0,
        "tle_line1": "1 35432U 93036AKA 25345.07983703  .00172981  00000+0  73021-2 0  9996",
        "tle_line2": "2 35432  74.0238  19.0481 0012250 344.2230  15.8585 15.22380706874784"
      },
      "geometry": {
        "type": "Point",
        "coordinates": [
          -149.1670173922814,
          -37.79430322562852
        ]
      }
    },
    {
      "type": "Feature",
      "properties": {
        "norad_id": 35433,
        "name": "COSMOS 2251 DEB",
        "group": "cosmos-2251-debris",
        "lat": 42.49911252429596,
        "lon": -4.2203914028026395,
        "alt_km": 754.1139343760542,
        "timestamp": "2025-12-11T13:55:02.562315+00:00",
        "meta_object_name": "COSMOS 2251 DEB",
        "meta_object_id": "1993-036AKB",
        "meta_epoch": "2025-12-10T18:27:52.031808",
        "meta_mean_motion": 14.34742553,
        "meta_eccentricity": 0.00254013,
        "meta_inclination": 74.0339,
        "meta_ra_of_asc_node": 342.0559,
        "meta_arg_of_pericenter": 37.4572,
        "meta_mean_anomaly": 142.4072,
        "meta_ephemeris_type": 0,
        "meta_classification_type": "U",
        "meta_norad_cat_id": 35433,
        "meta_element_set_no": 999,
        "meta_rev_at_epoch": 86552,
        "meta_bstar": 0.00041847558,
        "meta_mean_motion_dot": 1.164e-05,
        "meta_mean_motion_ddot": 0,
        "tle_line1": "1 35433U 93036AKB 25344.76935222  .00001164  00000+0  41848-3 0  9992",
        "tle_line2": "2 35433  74.0339 342.0559 0025401  37.4572 142.4072 14.34742553865528"
      },
      "geometry": {
        "type": "Point",
        "coordinates": [
          -4.2203914028026395,
          42.49911252429596
        ]
      }
    },
    {
      "type": "Feature",
      "properties": {
        "norad_id": 35434,
        "name": "COSMOS 2251 DEB",
        "group": "cosmos-2251-debris",
        "lat": -1.6506288861922878,
        "lon": -144.75294442386857,
        "alt_km": 788.8135707380297,
        "timestamp": "2025-12-11T13:55:02.562326+00:00",
        "meta_object_name": "COSMOS 2251 DEB",
        "meta_object_id": "1993-036AKC",
        "meta_epoch": "2025-12-10T09:17:45.920256",
        "meta_mean_motion": 14.25676993,
        "meta_eccentricity": 0.00875285,
        "meta_inclination": 74.0403,
        "meta_ra_of_asc_node": 217.8712,
        "meta_arg_of_pericenter": 289.0938,
        "meta_mean_anomaly": 70.0746,
        "meta_ephemeris_type": 0,
        "meta_classification_type": "U",
        "meta_norad_cat_id": 35434,
        "meta_element_set_no": 999,
        "meta_rev_at_epoch": 86084,
        "meta_bstar": 0.00089339487,
        "meta_mean_motion_dot": 2.18e-05,
        "meta_mean_motion_ddot": 0,
        "tle_line1": "1 35434U 93036AKC 25344.38733704  .00002180  00000+0  89339-3 0  9998",
        "tle_line2": "2 35434  74.0403 217.8712 0087528 289.0938  70.0746 14.25676993860848"
      },
      "geometry": {
        "type": "Point",
        "coordinates": [
          -144.75294442386857,
          -1.6506288861922878
        ]
      }
    },
    {
      "type": "Feature",
      "properties": {
        "norad_id": 35435,
        "name": "COSMOS 2251 DEB",
        "group": "cosmos-2251-debris",
        "lat": -28.60101096489015,
        "lon": 97.3535772889497,
        "alt_km": 643.6141626409844,
        "timestamp": "2025-12-11T13:55:02.562337+00:00",
        "meta_object_name": "COSMOS 2251 DEB",
        "meta_object_id": "1993-036AKD",
        "meta_epoch": "2025-12-11T01:35:23.280288",
        "meta_mean_motion": 14.78375379,
        "meta_eccentricity": 0.00082091,
        "meta_inclination": 74.0093,
        "meta_ra_of_asc_node": 107.3593,
        "meta_arg_of_pericenter": 201.1094,
        "meta_mean_anomaly": 276.4559,
        "meta_ephemeris_type": 0,
        "meta_classification_type": "U",
        "meta_norad_cat_id": 35435,
        "meta_element_set_no": 999,
        "meta_rev_at_epoch": 87514,
        "meta_bstar": 0.0035391532,
        "meta_mean_motion_dot": 0.00025849,
        "meta_mean_motion_ddot": 0,
        "tle_line1": "1 35435U 93036AKD 25345.06624167  .00025849  00000+0  35392-2 0  9993",
        "tle_line2": "2 35435  74.0093 107.3593 0008209 201.1094 276.4559 14.78375379875146"
      },
      "geometry": {
        "type": "Point",
        "coordinates": [
          97.3535772889497,
          -28.60101096489015
        ]
      }
    },
    {
      "type": "Feature",
      "properties": {
        "norad_id": 35439,
        "name": "COSMOS 2251 DEB",
        "group": "cosmos-2251-debris",
        "lat": -67.81872597823201,
        "lon": 1.3810483700373208,
        "alt_km": 814.1923863457787,
        "timestamp": "2025-12-11T13:55:02.562347+00:00",
        "meta_object_name": "COSMOS 2251 DEB",
        "meta_object_id": "1993-036AKH",
        "meta_epoch": "2025-12-11T04:55:48.885888",
        "meta_mean_motion": 13.92796753,
        "meta_eccentricity": 0.02419274,
        "meta_inclination": 74.0198,
        "meta_ra_of_asc_node": 137.3683,
        "meta_arg_of_pericenter": 307.011,
        "meta_mean_anomaly": 232.6694,
        "meta_ephemeris_type": 0,
        "meta_classification_type": "U",
        "meta_norad_cat_id": 35439,
        "meta_element_set_no": 999,
        "meta_rev_at_epoch": 83939,
        "meta_bstar": 0.0020869419,
        "meta_mean_motion_dot": 3.412e-05,
        "meta_mean_motion_ddot": 0,
        "tle_line1": "1 35439U 93036AKH 25345.20542692  .00003412  00000+0  20869-2 0  9990",
        "tle_line2": "2 35439  74.0198 137.3683 0241927 307.0110 232.6694 13.92796753839399"
      },
      "geometry": {
        "type": "Point",
        "coordinates": [
          1.3810483700373208,
          -67.81872597823201
        ]
      }
    },
    {
      "type": "Feature",
      "properties": {
        "norad_id": 35440,
        "name": "COSMOS 2251 DEB",
        "group": "cosmos-2251-debris",
        "lat": 10.194426535900519,
        "lon": -147.1705578091748,
        "alt_km": 620.1970952234442,
        "timestamp": "2025-12-11T13:55:02.562358+00:00",
        "meta_object_name": "COSMOS 2251 DEB",
        "meta_object_id": "1993-036AKJ",
        "meta_epoch": "2025-12-10T08:26:45.842208",
        "meta_mean_motion": 14.68793955,
        "meta_eccentricity": 0.00692048,
        "meta_inclination": 74.0146,
        "meta_ra_of_asc_node": 212.2531,
        "meta_arg_of_pericenter": 353.6751,
        "meta_mean_anomaly": 6.3537,
        "meta_ephemeris_type": 0,
        "meta_classification_type": "U",
        "meta_norad_cat_id": 35440,
        "meta_element_set_no": 999,
        "meta_rev_at_epoch": 68730,
        "meta_bstar": 0.0006737672,
        "meta_mean_motion_dot": 4.046e-05,
        "meta_mean_motion_ddot": 0,
        "tle_line1": "1 35440U 93036AKJ 25344.35191947  .00004046  00000+0  67377-3 0  9990",
        "tle_line2": "2 35440  74.0146 212.2531 0069204 353.6751   6.3537 14.68793955687302"
      },
      "geometry": {
        "type": "Point",
        "coordinates": [
          -147.1705578091748,
          10.194426535900519
        ]
      }
    },
    {
      "type": "Feature",
      "properties": {
        "norad_id": 35441,
        "name": "COSMOS 2251 DEB",
        "group": "cosmos-2251-debris",
        "lat": -9.419964478713547,
        "lon": -62.39327283258943,
        "alt_km": 711.9997661135849,
        "timestamp": "2025-12-11T13:55:02.562369+00:00",
        "meta_object_name": "COSMOS 2251 DEB",
        "meta_object_id": "1993-036AKK",
        "meta_epoch": "2025-12-08T15:22:12.064224",
        "meta_mean_motion": 14.62488563,
        "meta_eccentricity": 0.0037245,
        "meta_inclination": 74.1346,
        "meta_ra_of_asc_node": 305.9066,
        "meta_arg_of_pericenter": 204.2337,
        "meta_mean_anomaly": 155.708,
        "meta_ephemeris_type": 0,
        "meta_classification_type": "U",
        "meta_norad_cat_id": 35441,
        "meta_element_set_no": 999,
        "meta_rev_at_epoch": 87370,
        "meta_bstar": 0.0024987,
        "meta_mean_motion_dot": 0.00012785,
        "meta_mean_motion_ddot": 0,
        "tle_line1": "1 35441U 93036AKK 25342.64041741  .00012785  00000+0  24987-2 0  9995",
        "tle_line2": "2 35441  74.1346 305.9066 0037245 204.2337 155.7080 14.62488563873703"
      },
      "geometry": {
        "type": "Point",
        "coordinates": [
          -62.39327283258943,
          -9.419964478713547
        ]
      }
    }
  ]
}